{"type":"FeatureCollection", "features": [
{"type":"Feature","geometry":{"type":"Point","coordinates":[29.923,-18.925]},"properties":{"id":"ZW","name":"Zimbabwe"}},
{"type":"Feature","geometry":{"type":"Point","coordinates":[25.914,-14.898]},"properties":{"id":"ZM","name":"Zambia"}},
{"type":"Feature","geometry":{"type":"Point","coordinates":[45.89,15.319]},"properties":{"id":"YE","name":"Yemen"}},
{"type":"Feature","geometry":{"type":"Point","coordinates":[105.446,21.664]},"properties":{"id":"VN","name":"Vietnam"}},
{"type":"Feature","geometry":{"type":"Point","coordinates":[-64.608,7.021]},"properties":{"id":"VE","name":"Venezuela"}},
{"type":"Feature","geometry":{"type":"Point","coordinates":[12.435,41.902]},"properties":{"id":"VA","name":"Vatican City"}},
{"type":"Feature","geometry":{"type":"Point","coordinates":[166.876,-15.369]},"properties":{"id":"VU","name":"Vanuatu"}},
{"type":"Feature","geometry":{"type":"Point","coordinates":[63.976,41.327]},"properties":{"id":"UZ","name":"Uzbekistan"}},
{"type":"Feature","geometry":{"type":"Point","coordinates":[-56.015,-32.87]},"properties":{"id":"UY","name":"Uruguay"}},
{"type":"Feature","geometry":{"type":"Point","coordinates":[158.232,6.877]},"properties":{"id":"FM","name":"Federated States of Micronesia"}},
{"type":"Feature","geometry":{"type":"Point","coordinates":[171.154,7.103]},"properties":{"id":"MH","name":"Marshall Islands"}},
{"type":"Feature","geometry":{"type":"Point","coordinates":[145.73,15.163]},"properties":{"id":"MP","name":"Northern Mariana Islands"}},
{"type":"Feature","geometry":{"type":"Point","coordinates":[-64.799,17.746]},"properties":{"id":"VI","name":"United States Virgin Islands"}},
{"type":"Feature","geometry":{"type":"Point","coordinates":[144.716,13.413]},"properties":{"id":"GU","name":"Guam"}},
{"type":"Feature","geometry":{"type":"Point","coordinates":[-170.744,-14.312]},"properties":{"id":"AS","name":"American Samoa"}},
{"type":"Feature","geometry":{"type":"Point","coordinates":[-66.473,18.209]},"properties":{"id":"PR","name":"Puerto Rico"}},
{"type":"Feature","geometry":{"type":"Point","coordinates":[-97.197,38.502]},"properties":{"id":"US","name":"United States of America"}},
{"type":"Feature","geometry":{"type":"Point","coordinates":[-36.52,-54.355]},"properties":{"id":"GS","name":"South Georgia and the South Sandwich Islands"}},
{"type":"Feature","geometry":{"type":"Point","coordinates":[72.479,-7.278]},"properties":{"id":"IO","name":"British Indian Ocean Territory"}},
{"type":"Feature","geometry":{"type":"Point","coordinates":[-5.726,-15.952]},"properties":{"id":"SH","name":"Saint Helena"}},
{"type":"Feature","geometry":{"type":"Point","coordinates":[-128.316,-24.366]},"properties":{"id":"PN","name":"Pitcairn Islands"}},
{"type":"Feature","geometry":{"type":"Point","coordinates":[-63.046,18.237]},"properties":{"id":"AI","name":"Anguilla"}},
{"type":"Feature","geometry":{"type":"Point","coordinates":[-58.751,-51.63]},"properties":{"id":"FK","name":"Falkland Islands"}},
{"type":"Feature","geometry":{"type":"Point","coordinates":[-81.285,19.322]},"properties":{"id":"KY","name":"Cayman Islands"}},
{"type":"Feature","geometry":{"type":"Point","coordinates":[-64.744,32.31]},"properties":{"id":"BM","name":"Bermuda"}},
{"type":"Feature","geometry":{"type":"Point","coordinates":[-64.39,18.494]},"properties":{"id":"VG","name":"British Virgin Islands"}},
{"type":"Feature","geometry":{"type":"Point","coordinates":[-71.741,21.81]},"properties":{"id":"TC","name":"Turks and Caicos Islands"}},
{"type":"Feature","geometry":{"type":"Point","coordinates":[-62.186,16.718]},"properties":{"id":"MS","name":"Montserrat"}},
{"type":"Feature","geometry":{"type":"Point","coordinates":[-2.178,49.225]},"properties":{"id":"JE","name":"Jersey"}},
{"type":"Feature","geometry":{"type":"Point","coordinates":[-2.562,49.46]},"properties":{"id":"GG","name":"Guernsey"}},
{"type":"Feature","geometry":{"type":"Point","coordinates":[-4.544,54.234]},"properties":{"id":"IM","name":"Isle of Man"}},
{"type":"Feature","geometry":{"type":"Point","coordinates":[-1.474,52.796]},"properties":{"id":"GB","name":"United Kingdom"}},
{"type":"Feature","geometry":{"type":"Point","coordinates":[54.341,23.485]},"properties":{"id":"AE","name":"United Arab Emirates"}},
{"type":"Feature","geometry":{"type":"Point","coordinates":[31.988,49.357]},"properties":{"id":"UA","name":"Ukraine"}},
{"type":"Feature","geometry":{"type":"Point","coordinates":[32.422,0.897]},"properties":{"id":"UG","name":"Uganda"}},
{"type":"Feature","geometry":{"type":"Point","coordinates":[58.663,39.873]},"properties":{"id":"TM","name":"Turkmenistan"}},
{"type":"Feature","geometry":{"type":"Point","coordinates":[34.515,39.343]},"properties":{"id":"TR","name":"Turkey"}},
{"type":"Feature","geometry":{"type":"Point","coordinates":[9.016,33.704]},"properties":{"id":"TN","name":"Tunisia"}},
{"type":"Feature","geometry":{"type":"Point","coordinates":[-61.265,10.429]},"properties":{"id":"TT","name":"Trinidad and Tobago"}},
{"type":"Feature","geometry":{"type":"Point","coordinates":[-175.224,-21.176]},"properties":{"id":"TO","name":"Tonga"}},
{"type":"Feature","geometry":{"type":"Point","coordinates":[1.025,8.824]},"properties":{"id":"TG","name":"Togo"}},
{"type":"Feature","geometry":{"type":"Point","coordinates":[125.831,-8.805]},"properties":{"id":"TL","name":"East Timor"}},
{"type":"Feature","geometry":{"type":"Point","coordinates":[101.005,15.482]},"properties":{"id":"TH","name":"Thailand"}},
{"type":"Feature","geometry":{"type":"Point","coordinates":[34.908,-5.885]},"properties":{"id":"TZ","name":"Tanzania"}},
{"type":"Feature","geometry":{"type":"Point","coordinates":[72.57,38.365]},"properties":{"id":"TJ","name":"Tajikistan"}},
{"type":"Feature","geometry":{"type":"Point","coordinates":[120.901,23.717]},"properties":{"id":"TW","name":"Taiwan"}},
{"type":"Feature","geometry":{"type":"Point","coordinates":[38.231,34.983]},"properties":{"id":"SY","name":"Syria"}},
{"type":"Feature","geometry":{"type":"Point","coordinates":[8.212,46.932]},"properties":{"id":"CH","name":"Switzerland"}},
{"type":"Feature","geometry":{"type":"Point","coordinates":[16.294,64.209]},"properties":{"id":"SE","name":"Sweden"}},
{"type":"Feature","geometry":{"type":"Point","coordinates":[31.428,-26.59]},"properties":{"id":"SZ","name":"Eswatini"}},
{"type":"Feature","geometry":{"type":"Point","coordinates":[-55.958,4.146]},"properties":{"id":"SR","name":"Suriname"}},
{"type":"Feature","geometry":{"type":"Point","coordinates":[30.335,7.245]},"properties":{"id":"SS","name":"South Sudan"}},
{"type":"Feature","geometry":{"type":"Point","coordinates":[29.26,16.326]},"properties":{"id":"SD","name":"Sudan"}},
{"type":"Feature","geometry":{"type":"Point","coordinates":[80.724,7.544]},"properties":{"id":"LK","name":"Sri Lanka"}},
{"type":"Feature","geometry":{"type":"Point","coordinates":[-3.476,40.117]},"properties":{"id":"ES","name":"Spain"}},
{"type":"Feature","geometry":{"type":"Point","coordinates":[127.984,36.464]},"properties":{"id":"KR","name":"South Korea"}},
{"type":"Feature","geometry":{"type":"Point","coordinates":[23.228,-30.055]},"properties":{"id":"ZA","name":"South Africa"}},
{"type":"Feature","geometry":{"type":"Point","coordinates":[44.34,3.401]},"properties":{"id":"SO","name":"Somalia"}},
{"type":"Feature","geometry":{"type":"Point","coordinates":[159.222,-8.06]},"properties":{"id":"SB","name":"Solomon Islands"}},
{"type":"Feature","geometry":{"type":"Point","coordinates":[19.204,48.756]},"properties":{"id":"SK","name":"Slovakia"}},
{"type":"Feature","geometry":{"type":"Point","coordinates":[14.807,46.024]},"properties":{"id":"SI","name":"Slovenia"}},
{"type":"Feature","geometry":{"type":"Point","coordinates":[103.815,1.349]},"properties":{"id":"SG","name":"Singapore"}},
{"type":"Feature","geometry":{"type":"Point","coordinates":[-11.743,8.627]},"properties":{"id":"SL","name":"Sierra Leone"}},
{"type":"Feature","geometry":{"type":"Point","coordinates":[55.452,-4.611]},"properties":{"id":"SC","name":"Seychelles"}},
{"type":"Feature","geometry":{"type":"Point","coordinates":[20.634,44.162]},"properties":{"id":"RS","name":"Serbia"}},
{"type":"Feature","geometry":{"type":"Point","coordinates":[-14.99,15.213]},"properties":{"id":"SN","name":"Senegal"}},
{"type":"Feature","geometry":{"type":"Point","coordinates":[45.249,23.27]},"properties":{"id":"SA","name":"Saudi Arabia"}},
{"type":"Feature","geometry":{"type":"Point","coordinates":[6.65,0.284]},"properties":{"id":"ST","name":"São Tomé and Príncipe"}},
{"type":"Feature","geometry":{"type":"Point","coordinates":[12.459,43.943]},"properties":{"id":"SM","name":"San Marino"}},
{"type":"Feature","geometry":{"type":"Point","coordinates":[-172.454,-13.647]},"properties":{"id":"WS","name":"Samoa"}},
{"type":"Feature","geometry":{"type":"Point","coordinates":[-61.192,13.25]},"properties":{"id":"VC","name":"Saint Vincent and the Grenadines"}},
{"type":"Feature","geometry":{"type":"Point","coordinates":[-60.947,13.915]},"properties":{"id":"LC","name":"Saint Lucia"}},
{"type":"Feature","geometry":{"type":"Point","coordinates":[-62.744,17.333]},"properties":{"id":"KN","name":"Saint Kitts and Nevis"}},
{"type":"Feature","geometry":{"type":"Point","coordinates":[30.002,-1.869]},"properties":{"id":"RW","name":"Rwanda"}},
{"type":"Feature","geometry":{"type":"Point","coordinates":[93.854,63.129]},"properties":{"id":"RU","name":"Russia"}},
{"type":"Feature","geometry":{"type":"Point","coordinates":[24.976,45.739]},"properties":{"id":"RO","name":"Romania"}},
{"type":"Feature","geometry":{"type":"Point","coordinates":[51.167,25.271]},"properties":{"id":"QA","name":"Qatar"}},
{"type":"Feature","geometry":{"type":"Point","coordinates":[-8.286,39.221]},"properties":{"id":"PT","name":"Portugal"}},
{"type":"Feature","geometry":{"type":"Point","coordinates":[19.465,52.003]},"properties":{"id":"PL","name":"Poland"}},
{"type":"Feature","geometry":{"type":"Point","coordinates":[121.379,16.909]},"properties":{"id":"PH","name":"Philippines"}},
{"type":"Feature","geometry":{"type":"Point","coordinates":[-72.899,-12.986]},"properties":{"id":"PE","name":"Peru"}},
{"type":"Feature","geometry":{"type":"Point","coordinates":[-60.148,-21.678]},"properties":{"id":"PY","name":"Paraguay"}},
{"type":"Feature","geometry":{"type":"Point","coordinates":[143.074,-5.785]},"properties":{"id":"PG","name":"Papua New Guinea"}},
{"type":"Feature","geometry":{"type":"Point","coordinates":[-81.031,8.275]},"properties":{"id":"PA","name":"Panama"}},
{"type":"Feature","geometry":{"type":"Point","coordinates":[134.578,7.511]},"properties":{"id":"PW","name":"Palau"}},
{"type":"Feature","geometry":{"type":"Point","coordinates":[68.528,29.339]},"properties":{"id":"PK","name":"Pakistan"}},
{"type":"Feature","geometry":{"type":"Point","coordinates":[57.343,22.122]},"properties":{"id":"OM","name":"Oman"}},
{"type":"Feature","geometry":{"type":"Point","coordinates":[9.404,61.226]},"properties":{"id":"NO","name":"Norway"}},
{"type":"Feature","geometry":{"type":"Point","coordinates":[126.463,39.876]},"properties":{"id":"KP","name":"North Korea"}},
{"type":"Feature","geometry":{"type":"Point","coordinates":[7.967,9.61]},"properties":{"id":"NG","name":"Nigeria"}},
{"type":"Feature","geometry":{"type":"Point","coordinates":[9.508,17.44]},"properties":{"id":"NE","name":"Niger"}},
{"type":"Feature","geometry":{"type":"Point","coordinates":[-85.052,12.597]},"properties":{"id":"NI","name":"Nicaragua"}},
{"type":"Feature","geometry":{"type":"Point","coordinates":[169.327,-45.174]},"properties":{"id":"NZ","name":"New Zealand"}},
{"type":"Feature","geometry":{"type":"Point","coordinates":[-169.865,-19.062]},"properties":{"id":"NU","name":"Niue"}},
{"type":"Feature","geometry":{"type":"Point","coordinates":[-159.791,-21.218]},"properties":{"id":"CK","name":"Cook Islands"}},
{"type":"Feature","geometry":{"type":"Point","coordinates":[5.634,52.42]},"properties":{"id":"NL","name":"Netherlands"}},
{"type":"Feature","geometry":{"type":"Point","coordinates":[-69.975,12.51]},"properties":{"id":"AW","name":"Aruba"}},
{"type":"Feature","geometry":{"type":"Point","coordinates":[-68.952,12.164]},"properties":{"id":"CW","name":"Curaçao"}},
{"type":"Feature","geometry":{"type":"Point","coordinates":[83.58,28.311]},"properties":{"id":"NP","name":"Nepal"}},
{"type":"Feature","geometry":{"type":"Point","coordinates":[166.929,-0.52]},"properties":{"id":"NR","name":"Nauru"}},
{"type":"Feature","geometry":{"type":"Point","coordinates":[17.107,-20.587]},"properties":{"id":"NA","name":"Namibia"}},
{"type":"Feature","geometry":{"type":"Point","coordinates":[37.82,-13.974]},"properties":{"id":"MZ","name":"Mozambique"}},
{"type":"Feature","geometry":{"type":"Point","coordinates":[-7.247,31.675]},"properties":{"id":"MA","name":"Morocco"}},
{"type":"Feature","geometry":{"type":"Point","coordinates":[-12.633,23.978]},"properties":{"id":"EH","name":"Western Sahara"}},
{"type":"Feature","geometry":{"type":"Point","coordinates":[19.109,42.837]},"properties":{"id":"ME","name":"Montenegro"}},
{"type":"Feature","geometry":{"type":"Point","coordinates":[104.156,45.995]},"properties":{"id":"MN","name":"Mongolia"}},
{"type":"Feature","geometry":{"type":"Point","coordinates":[28.459,47.492]},"properties":{"id":"MD","name":"Moldova"}},
{"type":"Feature","geometry":{"type":"Point","coordinates":[7.413,43.754]},"properties":{"id":"MC","name":"Monaco"}},
{"type":"Feature","geometry":{"type":"Point","coordinates":[-102.295,23.927]},"properties":{"id":"MX","name":"Mexico"}},
{"type":"Feature","geometry":{"type":"Point","coordinates":[57.561,-20.289]},"properties":{"id":"MU","name":"Mauritius"}},
{"type":"Feature","geometry":{"type":"Point","coordinates":[-9.747,19.589]},"properties":{"id":"MR","name":"Mauritania"}},
{"type":"Feature","geometry":{"type":"Point","coordinates":[14.452,35.88]},"properties":{"id":"MT","name":"Malta"}},
{"type":"Feature","geometry":{"type":"Point","coordinates":[-2.166,18.726]},"properties":{"id":"ML","name":"Mali"}},
{"type":"Feature","geometry":{"type":"Point","coordinates":[73.503,4.199]},"properties":{"id":"MV","name":"Maldives"}},
{"type":"Feature","geometry":{"type":"Point","coordinates":[113.836,2.548]},"properties":{"id":"MY","name":"Malaysia"}},
{"type":"Feature","geometry":{"type":"Point","coordinates":[33.988,-11.428]},"properties":{"id":"MW","name":"Malawi"}},
{"type":"Feature","geometry":{"type":"Point","coordinates":[46.702,-18.286]},"properties":{"id":"MG","name":"Madagascar"}},
{"type":"Feature","geometry":{"type":"Point","coordinates":[21.661,41.591]},"properties":{"id":"MK","name":"North Macedonia"}},
{"type":"Feature","geometry":{"type":"Point","coordinates":[6.091,49.778]},"properties":{"id":"LU","name":"Luxembourg"}},
{"type":"Feature","geometry":{"type":"Point","coordinates":[24.091,55.113]},"properties":{"id":"LT","name":"Lithuania"}},
{"type":"Feature","geometry":{"type":"Point","coordinates":[9.532,47.111]},"properties":{"id":"LI","name":"Liechtenstein"}},
{"type":"Feature","geometry":{"type":"Point","coordinates":[18.009,26.644]},"properties":{"id":"LY","name":"Libya"}},
{"type":"Feature","geometry":{"type":"Point","coordinates":[-9.464,6.442]},"properties":{"id":"LR","name":"Liberia"}},
{"type":"Feature","geometry":{"type":"Point","coordinates":[28.339,-29.443]},"properties":{"id":"LS","name":"Lesotho"}},
{"type":"Feature","geometry":{"type":"Point","coordinates":[35.955,34.074]},"properties":{"id":"LB","name":"Lebanon"}},
{"type":"Feature","geometry":{"type":"Point","coordinates":[25.513,57.05]},"properties":{"id":"LV","name":"Latvia"}},
{"type":"Feature","geometry":{"type":"Point","coordinates":[102.527,19.634]},"properties":{"id":"LA","name":"Laos"}},
{"type":"Feature","geometry":{"type":"Point","coordinates":[74.452,41.65]},"properties":{"id":"KG","name":"Kyrgyzstan"}},
{"type":"Feature","geometry":{"type":"Point","coordinates":[47.477,29.496]},"properties":{"id":"KW","name":"Kuwait"}},
{"type":"Feature","geometry":{"type":"Point","coordinates":[20.87,42.601]},"properties":{"id":"XK","name":"Kosovo"}},
{"type":"Feature","geometry":{"type":"Point","coordinates":[-157.345,1.801]},"properties":{"id":"KI","name":"Kiribati"}},
{"type":"Feature","geometry":{"type":"Point","coordinates":[37.871,0.486]},"properties":{"id":"KE","name":"Kenya"}},
{"type":"Feature","geometry":{"type":"Point","coordinates":[68.992,48.341]},"properties":{"id":"KZ","name":"Kazakhstan"}},
{"type":"Feature","geometry":{"type":"Point","coordinates":[36.417,30.727]},"properties":{"id":"JO","name":"Jordan"}},
{"type":"Feature","geometry":{"type":"Point","coordinates":[138.459,36.138]},"properties":{"id":"JP","name":"Japan"}},
{"type":"Feature","geometry":{"type":"Point","coordinates":[-77.385,18.153]},"properties":{"id":"JM","name":"Jamaica"}},
{"type":"Feature","geometry":{"type":"Point","coordinates":[12.747,42.69]},"properties":{"id":"IT","name":"Italy"}},
{"type":"Feature","geometry":{"type":"Point","coordinates":[34.724,31.162]},"properties":{"id":"IL","name":"Israel"}},
{"type":"Feature","geometry":{"type":"Point","coordinates":[35.272,32.073]},"properties":{"id":"PS","name":"Palestine"}},
{"type":"Feature","geometry":{"type":"Point","coordinates":[-8.144,53.098]},"properties":{"id":"IE","name":"Ireland"}},
{"type":"Feature","geometry":{"type":"Point","coordinates":[43.255,33.101]},"properties":{"id":"IQ","name":"Iraq"}},
{"type":"Feature","geometry":{"type":"Point","coordinates":[54.925,32.147]},"properties":{"id":"IR","name":"Iran"}},
{"type":"Feature","geometry":{"type":"Point","coordinates":[101.88,-0.691]},"properties":{"id":"ID","name":"Indonesia"}},
{"type":"Feature","geometry":{"type":"Point","coordinates":[78.591,22.622]},"properties":{"id":"IN","name":"India"}},
{"type":"Feature","geometry":{"type":"Point","coordinates":[-18.72,64.79]},"properties":{"id":"IS","name":"Iceland"}},
{"type":"Feature","geometry":{"type":"Point","coordinates":[19.444,47.109]},"properties":{"id":"HU","name":"Hungary"}},
{"type":"Feature","geometry":{"type":"Point","coordinates":[-86.817,14.799]},"properties":{"id":"HN","name":"Honduras"}},
{"type":"Feature","geometry":{"type":"Point","coordinates":[-72.225,19.231]},"properties":{"id":"HT","name":"Haiti"}},
{"type":"Feature","geometry":{"type":"Point","coordinates":[-58.946,5.765]},"properties":{"id":"GY","name":"Guyana"}},
{"type":"Feature","geometry":{"type":"Point","coordinates":[-14.982,12.063]},"properties":{"id":"GW","name":"Guinea-Bissau"}},
{"type":"Feature","geometry":{"type":"Point","coordinates":[-9.996,10.609]},"properties":{"id":"GN","name":"Guinea"}},
{"type":"Feature","geometry":{"type":"Point","coordinates":[-90.555,14.991]},"properties":{"id":"GT","name":"Guatemala"}},
{"type":"Feature","geometry":{"type":"Point","coordinates":[-61.668,12.122]},"properties":{"id":"GD","name":"Grenada"}},
{"type":"Feature","geometry":{"type":"Point","coordinates":[21.765,39.376]},"properties":{"id":"GR","name":"Greece"}},
{"type":"Feature","geometry":{"type":"Point","coordinates":[-1.04,7.694]},"properties":{"id":"GH","name":"Ghana"}},
{"type":"Feature","geometry":{"type":"Point","coordinates":[9.925,51.31]},"properties":{"id":"DE","name":"Germany"}},
{"type":"Feature","geometry":{"type":"Point","coordinates":[43.492,41.981]},"properties":{"id":"GE","name":"Georgia"}},
{"type":"Feature","geometry":{"type":"Point","coordinates":[-16.094,13.371]},"properties":{"id":"GM","name":"The Gambia"}},
{"type":"Feature","geometry":{"type":"Point","coordinates":[11.499,-0.612]},"properties":{"id":"GA","name":"Gabon"}},
{"type":"Feature","geometry":{"type":"Point","coordinates":[2.458,46.717]},"properties":{"id":"FR","name":"France"}},
{"type":"Feature","geometry":{"type":"Point","coordinates":[-56.332,47.036]},"properties":{"id":"PM","name":"Saint Pierre and Miquelon"}},
{"type":"Feature","geometry":{"type":"Point","coordinates":[-178.124,-14.288]},"properties":{"id":"WF","name":"Wallis and Futuna"}},
{"type":"Feature","geometry":{"type":"Point","coordinates":[-63.065,18.089]},"properties":{"id":"MF","name":"Saint Martin"}},
{"type":"Feature","geometry":{"type":"Point","coordinates":[-62.83,17.899]},"properties":{"id":"BL","name":"Saint Barthélemy"}},
{"type":"Feature","geometry":{"type":"Point","coordinates":[-149.476,-17.622]},"properties":{"id":"PF","name":"French Polynesia"}},
{"type":"Feature","geometry":{"type":"Point","coordinates":[165.126,-21.09]},"properties":{"id":"NC","name":"New Caledonia"}},
{"type":"Feature","geometry":{"type":"Point","coordinates":[69.516,-49.435]},"properties":{"id":"TF","name":"French Southern and Antarctic Lands"}},
{"type":"Feature","geometry":{"type":"Point","coordinates":[19.921,60.243]},"properties":{"id":"AX","name":"Åland"}},
{"type":"Feature","geometry":{"type":"Point","coordinates":[27.293,63.256]},"properties":{"id":"FI","name":"Finland"}},
{"type":"Feature","geometry":{"type":"Point","coordinates":[177.992,-17.808]},"properties":{"id":"FJ","name":"Fiji"}},
{"type":"Feature","geometry":{"type":"Point","coordinates":[38.868,8.036]},"properties":{"id":"ET","name":"Ethiopia"}},
{"type":"Feature","geometry":{"type":"Point","coordinates":[25.861,58.742]},"properties":{"id":"EE","name":"Estonia"}},
{"type":"Feature","geometry":{"type":"Point","coordinates":[38.221,15.946]},"properties":{"id":"ER","name":"Eritrea"}},
{"type":"Feature","geometry":{"type":"Point","coordinates":[10.474,1.585]},"properties":{"id":"GQ","name":"Equatorial Guinea"}},
{"type":"Feature","geometry":{"type":"Point","coordinates":[-88.86,13.728]},"properties":{"id":"SV","name":"El Salvador"}},
{"type":"Feature","geometry":{"type":"Point","coordinates":[29.255,26.444]},"properties":{"id":"EG","name":"Egypt"}},
{"type":"Feature","geometry":{"type":"Point","coordinates":[-78.441,-1.21]},"properties":{"id":"EC","name":"Ecuador"}},
{"type":"Feature","geometry":{"type":"Point","coordinates":[-70.525,19.009]},"properties":{"id":"DO","name":"Dominican Republic"}},
{"type":"Feature","geometry":{"type":"Point","coordinates":[-61.371,15.478]},"properties":{"id":"DM","name":"Dominica"}},
{"type":"Feature","geometry":{"type":"Point","coordinates":[42.474,11.937]},"properties":{"id":"DJ","name":"Djibouti"}},
{"type":"Feature","geometry":{"type":"Point","coordinates":[-39.245,74.496]},"properties":{"id":"GL","name":"Greenland"}},
{"type":"Feature","geometry":{"type":"Point","coordinates":[-6.988,62.185]},"properties":{"id":"FO","name":"Faroe Islands"}},
{"type":"Feature","geometry":{"type":"Point","coordinates":[9.096,56.255]},"properties":{"id":"DK","name":"Denmark"}},
{"type":"Feature","geometry":{"type":"Point","coordinates":[15.374,49.881]},"properties":{"id":"CZ","name":"Czech Republic"}},
{"type":"Feature","geometry":{"type":"Point","coordinates":[32.968,34.841]},"properties":{"id":"CY","name":"Cyprus"}},
{"type":"Feature","geometry":{"type":"Point","coordinates":[-77.929,21.329]},"properties":{"id":"CU","name":"Cuba"}},
{"type":"Feature","geometry":{"type":"Point","coordinates":[16.453,45.814]},"properties":{"id":"HR","name":"Croatia"}},
{"type":"Feature","geometry":{"type":"Point","coordinates":[-5.63,7.57]},"properties":{"id":"CI","name":"Ivory Coast"}},
{"type":"Feature","geometry":{"type":"Point","coordinates":[-84.08,10.068]},"properties":{"id":"CR","name":"Costa Rica"}},
{"type":"Feature","geometry":{"type":"Point","coordinates":[23.499,-2.28]},"properties":{"id":"CD","name":"Democratic Republic of the Congo"}},
{"type":"Feature","geometry":{"type":"Point","coordinates":[15.896,-0.027]},"properties":{"id":"CG","name":"Republic of the Congo"}},
{"type":"Feature","geometry":{"type":"Point","coordinates":[43.347,-11.746]},"properties":{"id":"KM","name":"Comoros"}},
{"type":"Feature","geometry":{"type":"Point","coordinates":[-73.079,3.472]},"properties":{"id":"CO","name":"Colombia"}},
{"type":"Feature","geometry":{"type":"Point","coordinates":[106.349,32.517]},"properties":{"id":"CN","name":"People's Republic of China"}},
{"type":"Feature","geometry":{"type":"Point","coordinates":[113.5,22.232]},"properties":{"id":"MO","name":"Macau"}},
{"type":"Feature","geometry":{"type":"Point","coordinates":[114.192,22.458]},"properties":{"id":"HK","name":"Hong Kong"}},
{"type":"Feature","geometry":{"type":"Point","coordinates":[-72.367,-38.26]},"properties":{"id":"CL","name":"Chile"}},
{"type":"Feature","geometry":{"type":"Point","coordinates":[18.742,15.177]},"properties":{"id":"TD","name":"Chad"}},
{"type":"Feature","geometry":{"type":"Point","coordinates":[20.917,6.995]},"properties":{"id":"CF","name":"Central African Republic"}},
{"type":"Feature","geometry":{"type":"Point","coordinates":[-23.619,15.064]},"properties":{"id":"CV","name":"Cape Verde"}},
{"type":"Feature","geometry":{"type":"Point","coordinates":[-112.358,58.342]},"properties":{"id":"CA","name":"Canada"}},
{"type":"Feature","geometry":{"type":"Point","coordinates":[12.364,4.542]},"properties":{"id":"CM","name":"Cameroon"}},
{"type":"Feature","geometry":{"type":"Point","coordinates":[104.589,12.73]},"properties":{"id":"KH","name":"Cambodia"}},
{"type":"Feature","geometry":{"type":"Point","coordinates":[95.809,21.591]},"properties":{"id":"MM","name":"Myanmar"}},
{"type":"Feature","geometry":{"type":"Point","coordinates":[29.869,-3.357]},"properties":{"id":"BI","name":"Burundi"}},
{"type":"Feature","geometry":{"type":"Point","coordinates":[-1.163,12.699]},"properties":{"id":"BF","name":"Burkina Faso"}},
{"type":"Feature","geometry":{"type":"Point","coordinates":[25.28,42.473]},"properties":{"id":"BG","name":"Bulgaria"}},
{"type":"Feature","geometry":{"type":"Point","coordinates":[114.542,4.466]},"properties":{"id":"BN","name":"Brunei"}},
{"type":"Feature","geometry":{"type":"Point","coordinates":[-49.859,-12.11]},"properties":{"id":"BR","name":"Brazil"}},
{"type":"Feature","geometry":{"type":"Point","coordinates":[24.175,-22.149]},"properties":{"id":"BW","name":"Botswana"}},
{"type":"Feature","geometry":{"type":"Point","coordinates":[17.784,44.139]},"properties":{"id":"BA","name":"Bosnia and Herzegovina"}},
{"type":"Feature","geometry":{"type":"Point","coordinates":[-64.684,-16.632]},"properties":{"id":"BO","name":"Bolivia"}},
{"type":"Feature","geometry":{"type":"Point","coordinates":[90.379,27.478]},"properties":{"id":"BT","name":"Bhutan"}},
{"type":"Feature","geometry":{"type":"Point","coordinates":[2.349,10.386]},"properties":{"id":"BJ","name":"Benin"}},
{"type":"Feature","geometry":{"type":"Point","coordinates":[-88.736,17.195]},"properties":{"id":"BZ","name":"Belize"}},
{"type":"Feature","geometry":{"type":"Point","coordinates":[4.693,50.701]},"properties":{"id":"BE","name":"Belgium"}},
{"type":"Feature","geometry":{"type":"Point","coordinates":[28.401,53.82]},"properties":{"id":"BY","name":"Belarus"}},
{"type":"Feature","geometry":{"type":"Point","coordinates":[-59.536,13.163]},"properties":{"id":"BB","name":"Barbados"}},
{"type":"Feature","geometry":{"type":"Point","coordinates":[89.983,24.05]},"properties":{"id":"BD","name":"Bangladesh"}},
{"type":"Feature","geometry":{"type":"Point","coordinates":[50.535,26.041]},"properties":{"id":"BH","name":"Bahrain"}},
{"type":"Feature","geometry":{"type":"Point","coordinates":[-78.007,24.694]},"properties":{"id":"BS","name":"The Bahamas"}},
{"type":"Feature","geometry":{"type":"Point","coordinates":[47.219,40.384]},"properties":{"id":"AZ","name":"Azerbaijan"}},
{"type":"Feature","geometry":{"type":"Point","coordinates":[14.102,47.535]},"properties":{"id":"AT","name":"Austria"}},
{"type":"Feature","geometry":{"type":"Point","coordinates":[134.048,-24.137]},"properties":{"id":"AU","name":"Australia"}},
{"type":"Feature","geometry":{"type":"Point","coordinates":[105.675,-10.503]},"properties":{"id":"AU","name":"Australian Indian Ocean Territories"}},
{"type":"Feature","geometry":{"type":"Point","coordinates":[73.518,-53.101]},"properties":{"id":"HM","name":"Heard Island and McDonald Islands"}},
{"type":"Feature","geometry":{"type":"Point","coordinates":[167.946,-29.06]},"properties":{"id":"NF","name":"Norfolk Island"}},
{"type":"Feature","geometry":{"type":"Point","coordinates":[123.584,-12.43]},"properties":{"id":"AU","name":"Ashmore and Cartier Islands"}},
{"type":"Feature","geometry":{"type":"Point","coordinates":[44.781,40.459]},"properties":{"id":"AM","name":"Armenia"}},
{"type":"Feature","geometry":{"type":"Point","coordinates":[-64.173,-33.529]},"properties":{"id":"AR","name":"Argentina"}},
{"type":"Feature","geometry":{"type":"Point","coordinates":[-61.798,17.07]},"properties":{"id":"AG","name":"Antigua and Barbuda"}},
{"type":"Feature","geometry":{"type":"Point","coordinates":[17.985,-12.167]},"properties":{"id":"AO","name":"Angola"}},
{"type":"Feature","geometry":{"type":"Point","coordinates":[1.526,42.505]},"properties":{"id":"AD","name":"Andorra"}},
{"type":"Feature","geometry":{"type":"Point","coordinates":[3.317,27.913]},"properties":{"id":"DZ","name":"Algeria"}},
{"type":"Feature","geometry":{"type":"Point","coordinates":[20.098,40.664]},"properties":{"id":"AL","name":"Albania"}},
{"type":"Feature","geometry":{"type":"Point","coordinates":[66.491,34.168]},"properties":{"id":"AF","name":"Afghanistan"}},
{"type":"Feature","geometry":{"type":"Point","coordinates":[48.008,-78.871]},"properties":{"id":"AQ","name":"Antarctica"}},
{"type":"Feature","geometry":{"type":"Point","coordinates":[-63.042,18.049]},"properties":{"id":"SX","name":"Sint Maarten"}},
{"type":"Feature","geometry":{"type":"Point","coordinates":[179.207,-8.503]},"properties":{"id":"TV","name":"Tuvalu"}}
]}